sat04868
1 04868U 70025EY  20046.72922895  .00000471  00000-0  37720-3 0  9990
2 04868  99.6864 311.9182 0057590 152.7589 207.6611 13.95474745512031
